#dP2022 12  6  0  0  0.00000000      96 __u+U IGS14 FIT  IAC
## 2239 172800.00000000   900.00000000 59919 0.0000000000000
+  117   C06C07C08C09C11C12C13C14C16C19C20C21C22C23C24C25C26
+        C27C28C29C30C32C33C34C35C36C37C38C39C40C41C42C43C44
+        C45C46E01E02E03E04E05E07E08E09E10E11E12E13E14E15E18
+        E19E21E24E25E26E27E30E31E33E34E36G01G02G03G04G05G06
+        G07G08G09G10G11G12G13G14G15G16G17G18G19G20G21G22G23
+        G24G25G26G27G29G30G31G32J02J03J04R01R02R03R04R05R07
+        R08R09R11R12R13R14R15R17R18R19R20R21R22R24R25  0  0
++         7  7  7  7  7  7  9  7  7  6  5  6  6  6  6  6  6
++         6  6  6  6  6  6  6  6  6  6  6  6  7  6  6  6  6
++         6  6  4  4  4  5  4  4  4  4  4  0  4  4  5  4  5
++         4  5  4  4  4  4  4  4  4  4  4  4  3  4  4  3  4
++         3  3  3  4  4  4  3  3  3  4  3  3  4  4  3  4  3
++         3  4  4  3  3  3  4  4  9  9  9  7  7  6  7  7  7
++         7  7  6  6  8  7  7  7  7  8  8  7  7  7  8  0  0
%c M  cc GPS ccc cccc cccc cccc cccc ccccc ccccc ccccc ccccc
%c cc cc ccc ccc cccc cccc cccc cccc ccccc ccccc ccccc ccccc
%f  1.2500000  1.025000000  0.00000000000  0.000000000000000
%f  0.0000000  0.000000000  0.00000000000  0.000000000000000
%i    0    0    0    0      0      0      0      0         0
%i    0    0    0    0      0      0      0      0         0
/* INFORMATION & ANALYSIS CENTER (IAC)            FINAL DATA
/* S/V CLOCKS ARE ALIGNED TO GNSS TIME                      
/* G:C1WC2W R:C1PC2P E:C1XC5X C:C2IC6I J:C1CC2S             
/* PCV:IGS20_2233 OL/AL:FES2004  NONE     YN ORB:CoN CLK:CoN
*  2022 12 06 17  0  0.00000000
PC06  -3450.459483  25130.241010 -33660.125743    222.745258
PC07 -16404.309820  34825.907079  17089.676286    112.929206
PC08  -3402.358900  39202.387681  15413.790974    520.238856
PC09   4191.786822  27249.760208 -31370.145064   -789.290915
PC11 -23292.382709   3100.328340  15106.241215   -251.116442
PC12 -26348.990922  -9027.486366  -1556.462320    333.676443
PC13   1512.829527  41461.049416   8462.703668    151.510929
PC14 -22452.380042  14607.682371   7750.232821    241.048504
PC16  -9432.899242  22158.063397 -34432.836471    106.007039
PC19  19090.159696 -20301.047310   1615.422858   -906.244848
PC20  22436.765962  -8194.269758 -14439.912111    814.651196
PC21 -12434.648076  -9827.725688  22977.012305   -929.602015
PC22   4619.515405 -21257.725392  17482.503291   -754.451179
PC23   2862.738944  27231.460941  -5415.843535   -872.716984
PC24 -17076.456515  -3489.724480 -21802.923089   -710.314306
PC25  -9094.440422  18276.450509 -19048.246973     35.505879
PC26 -14859.164971 -20066.484156 -12438.008106    -46.104695
PC27  22316.114630  13613.139753   9738.141949     62.231704
PC28   5820.331604  17108.112475  21273.714254     44.207169
PC29  15269.701529 -10966.639787 -20624.243422     50.168668
PC30  26962.686660   1842.950357  -6916.276957      1.149976
PC32  12448.578586   9803.257936 -22961.921042   -691.978001
PC33 -19026.462033  20354.613156  -1483.499648   -898.351353
PC34 -26726.484086  -1045.096216   7991.135197     55.225452
PC35  -4596.663697 -16872.970783 -21757.360923    121.025628
PC36   9917.321073 -17459.995746  19391.975169   -787.255450
PC37  13842.778858  21454.854775  11304.203836   -891.878831
PC38  -8250.155245  35604.895438  21215.297970     43.119012
PC39 -13153.457531  20722.266820 -34296.384073     -1.017662
PC40 -24670.396718  30303.863555  15584.897221     -9.630292
PC41  -5084.070196  21467.287413 -17045.541739   -351.841979
PC42 -22202.520808   7050.952721  15392.665262   -800.322266
PC43 -16082.456052  10582.097485  20204.975378     28.733746
PC44 -22666.118663 -12960.446587  -9899.623714    136.657221
PC45  -3142.191380 -27243.980342   5072.869387    -31.384733
PC46  16736.200658   1519.722465  22279.868894    -17.809797
PE01 -15886.613151  21094.581586 -13383.689387   -577.076040
PE02  15785.557423 -21286.210610  13162.036781      6.958522
PE03  22931.461200 -14300.312837  12073.915842   -627.150564
PE04  -4008.809546  17840.156787 -23278.885671     -8.369080
PE05  28790.727571  -2264.776810  -6488.131987   -117.664113
PE07 -17783.069379 -10911.533433  20993.034788     -5.051222
PE08   4044.944230 -17716.940928  23358.953099      1.686888
PE09  17597.216890  10866.457233 -21183.718466   -754.583633
PE10  13869.337998  24013.464709  10365.748856   -495.912488
PE11      0.000000      0.000000      0.000000 999999.999999
PE12   5515.333264  22756.447506  18105.163854   -317.169582
PE13 -20087.081326 -21724.102386   -863.943437    430.447576
PE14 -18481.698960 -12502.613160 -17197.750863     77.046564
PE15  -5344.979463 -22608.301917 -18330.751198    702.707216
PE18  29224.277638   1102.829187   4358.570374   -659.354618
PE19 -24738.068468  12951.543668  -9834.562500  -3811.983809
PE21 -17657.487722   2855.674136 -23586.663429   -498.802086
PE24   8919.199355  19311.828874  20583.611683   -987.072934
PE25  17604.269979  -2475.369662  23671.228537   -594.329811
PE26 -22759.310398  -7298.771622  17466.848119  -1889.230730
PE27  -9553.361723 -18418.290170 -21101.484515   -456.798044
PE30   4703.892740 -28688.082202  -5522.000437  -1056.531400
PE31  -4094.252672  28654.802206   6225.101711   -509.982480
PE33 -12461.740216  10141.570179  24869.578190   -455.625891
PE34  12313.082616 -10303.338284 -24866.787828    -18.264409
PE36  22892.945172   8130.273102 -16901.830398   -471.438818
PG01 -20047.737009 -11234.858151  13301.238730    241.437808
PG02  20551.605173   6888.000876 -14577.533971   -634.390369
PG03 -14848.921046  -2299.967862  21770.966801   -375.123732
PG04 -25760.900160  -1316.243751   6566.858173    -73.494894
PG05   8779.845203  16163.147984 -19288.191645   -107.051229
PG06   1175.718125  19909.640542  17566.279438    534.571811
PG07 -16004.172364   3588.626258 -20557.239916    278.110423
PG08 -19942.547098  -7660.119734 -16059.377918    -97.329566
PG09 -25015.020526   7852.707403  -4482.288194   -257.675748
PG10  11273.777361 -23601.904078  -3332.316810    -14.950674
PG11  10804.688811  23192.765798   7208.393425    -52.019467
PG12  14433.114013   4252.138715  21610.793557   -312.772734
PG13  12555.210043  13155.113248 -19599.433143    437.328751
PG14 -13473.376974  22158.426335  -5434.278227    -72.449709
PG15  20807.816312   6072.689674 -15979.245990     -6.350661
PG16  -3699.678474 -19805.868623 -17346.153737   -526.466565
PG17 -16846.099888  12885.850666  16480.364298    683.786160
PG18  14024.752298  -6098.342838 -21727.475272    -48.919400
PG19  -5194.260543  14697.552548  21233.919578    246.964984
PG20   1999.486702  24828.182230  -9515.848601    465.330518
PG21 -21163.697524 -15806.079638   6057.583811    154.467135
PG22   1651.141313 -15481.892273  21930.884220    379.260066
PG23  15556.897199 -16611.620522 -13577.997204     -0.319516
PG24  21576.542205  12980.605372   8746.460191     27.773996
PG25  16849.172150  -7484.845898  18714.245713    399.533068
PG26   2637.872044 -25395.677868  -6749.540533    237.762292
PG27  -8948.805125 -13394.931721 -21406.972644    160.211071
PG29  26164.100658  -4049.049879  -2648.527993   -572.197377
PG30  -7077.954836  15262.746779 -20409.937676   -535.819174
PG31  -1829.819663 -20780.333006  16003.771524   -202.443749
PG32  13232.364908 -14856.105275  17651.046644   -320.472452
PJ02 -23900.359314  31675.756710  -9520.401023     -0.261310
PJ03 -26748.803662  22834.399628  28439.418460     -6.092753
PJ04 -32866.228571  26515.374360   6318.335098    114.510843
PR01 -17903.080114  16765.350511  -6999.821044     19.093137
PR02  -3170.819231  13953.157149 -21097.426398    -23.410094
PR03  13130.379282   3465.805910 -21538.863618     68.590601
PR04  21726.895105  -8746.633440 -10059.904764    167.582741
PR05  18536.567031 -16066.958100   6943.083298    104.107208
PR07 -13818.076249  -2875.285620  21294.495446     45.601554
PR08 -21771.285640   8867.057389   9998.332265    -68.452291
PR09  -3315.917403 -25250.984342  -2008.007575     91.541118
PR11 -10823.969258   1503.576432 -23040.168805     16.621154
PR12  -5659.969998  19938.626318 -14861.597007     23.429295
PR13   2325.088703  25402.562944    361.954742    -29.669314
PR14   9737.172904  15818.094665  17484.876189     24.069168
PR15  10857.635623  -2592.889020  22952.165502     92.509845
PR17  21645.719883  12893.208718   4143.096049    584.555459
PR18  21752.619777   4858.077005 -12339.830201     55.504520
PR19  11946.038444  -4644.368254 -22048.263879   -213.584311
PR20  -8172.402443 -14318.082374 -19463.783588    -83.448587
PR21 -22119.902147 -12432.203411  -2452.183864   -355.392911
PR22 -21423.627614  -4956.846487  12969.340745     19.562487
PR24   8996.556383  14545.650102  18955.766754    131.040934
PR25 -20773.868095 -14080.281106  -4494.739155     48.201737
EOF
